{"type": "FeatureCollection", "features": [ {"type": "Feature", "properties": {"norad_id": 66573, "name": "STARLINK-35650", "group": "last-30-days", "lat": -19.229819679498302, "lon": 13.78455810154057, "alt_km": 353.5689358231066, "timestamp": "2025-12-04T03:47:53.336794+00:00", "meta": {"OBJECT_NAME": "STARLINK-35650", "OBJECT_ID": "2025-268S", "EPOCH": "2025-12-03T20:00:01.999008", "MEAN_MOTION": 15.73704277, "ECCENTRICITY": 0.0001641, "INCLINATION": 42.9989, "RA_OF_ASC_NODE": 173.766, "ARG_OF_PERICENTER": 273.6645, "MEAN_ANOMALY": 253.0692, "EPHEMERIS_TYPE": 0, "CLASSIFICATION_TYPE": "U", "NORAD_CAT_ID": 66573, "ELEMENT_SET_NO": 999, "REV_AT_EPOCH": 323, "BSTAR": -0.015123, "MEAN_MOTION_DOT": -0.01904621, "MEAN_MOTION_DDOT": 0}, "tle": {"line1": "1 66573U 25268S   25337.83335647 -.01904621  00000+0 -15123-1 0  9996", "line2": "2 66573  42.9989 173.7660 0001641 273.6645 253.0692 15.73704277  3233"}}, "geometry": {"type": "Point", "coordinates": [13.78455810154057, -19.229819679498302]}}, {"type": "Feature", "properties": {"norad_id": 66574, "name": "STARLINK-35812", "group": "last-30-days", "lat": -20.441946298225357, "lon": 15.373374306194314, "alt_km": 353.7643399172284, "timestamp": "2025-12-04T03:47:53.336804+00:00", "meta": {"OBJECT_NAME": "STARLINK-35812", "OBJECT_ID": "2025-268T", "EPOCH": "2025-12-03T20:00:01.999008", "MEAN_MOTION": 15.7367307, "ECCENTRICITY": 0.0001237, "INCLINATION": 42.999, "RA_OF_ASC_NODE": 173.7602, "ARG_OF_PERICENTER": 272.985, "MEAN_ANOMALY": 255.6974, "EPHEMERIS_TYPE": 0, "CLASSIFICATION_TYPE": "U", "NORAD_CAT_ID": 66574, "ELEMENT_SET_NO": 999, "REV_AT_EPOCH": 323, "BSTAR": -0.0149, "MEAN_MOTION_DOT": -0.01877707, "MEAN_MOTION_DDOT": 0}, "tle": {"line1": "1 66574U 25268T   25337.83335647 -.01877707  00000+0 -14900-1 0  9993", "line2": "2 66574  42.9990 173.7602 0001237 272.9850 255.6974 15.73673070  3230"}}, "geometry": {"type": "Point", "coordinates": [15.373374306194314, -20.441946298225357]}}, {"type": "Feature", "properties": {"norad_id": 66575, "name": "STARLINK-35810", "group": "last-30-days", "lat": -21.629868683211804, "lon": 16.976185628979106, "alt_km": 353.78032360128054, "timestamp": "2025-12-04T03:47:53.336816+00:00", "meta": {"OBJECT_NAME": "STARLINK-35810", "OBJECT_ID": "2025-268U", "EPOCH": "2025-12-03T20:00:01.999008", "MEAN_MOTION": 15.73685404, "ECCENTRICITY": 0.0001384, "INCLINATION": 42.9987, "RA_OF_ASC_NODE": 173.7559, "ARG_OF_PERICENTER": 272.9884, "MEAN_ANOMALY": 257.6018, "EPHEMERIS_TYPE": 0, "CLASSIFICATION_TYPE": "U", "NORAD_CAT_ID": 66575, "ELEMENT_SET_NO": 999, "REV_AT_EPOCH": 323, "BSTAR": -0.015008, "MEAN_MOTION_DOT": -0.0189051, "MEAN_MOTION_DDOT": 0}, "tle": {"line1": "1 66575U 25268U   25337.83335647 -.01890510  00000+0 -15008-1 0  9991", "line2": "2 66575  42.9987 173.7559 0001384 272.9884 257.6018 15.73685404  3233"}}, "geometry": {"type": "Point", "coordinates": [16.976185628979106, -21.629868683211804]}}, {"type": "Feature", "properties": {"norad_id": 66576, "name": "STARLINK-35814", "group": "last-30-days", "lat": -22.80675408121197, "lon": 18.611124503350158, "alt_km": 353.95699931233867, "timestamp": "2025-12-04T03:47:53.336826+00:00", "meta": {"OBJECT_NAME": "STARLINK-35814", "OBJECT_ID": "2025-268V", "EPOCH": "2025-12-03T20:00:01.999008", "MEAN_MOTION": 15.73685524, "ECCENTRICITY": 0.0001157, "INCLINATION": 42.9987, "RA_OF_ASC_NODE": 173.7509, "ARG_OF_PERICENTER": 274.8635, "MEAN_ANOMALY": 257.6483, "EPHEMERIS_TYPE": 0, "CLASSIFICATION_TYPE": "U", "NORAD_CAT_ID": 66576, "ELEMENT_SET_NO": 999, "REV_AT_EPOCH": 323, "BSTAR": -0.01504, "MEAN_MOTION_DOT": -0.01893767, "MEAN_MOTION_DDOT": 0}, "tle": {"line1": "1 66576U 25268V   25337.83335647 -.01893767  00000+0 -15040-1 0  9995", "line2": "2 66576  42.9987 173.7509 0001157 274.8635 257.6483 15.73685524  3231"}}, "geometry": {"type": "Point", "coordinates": [18.611124503350158, -22.80675408121197]}}, {"type": "Feature", "properties": {"norad_id": 66577, "name": "STARLINK-35815", "group": "last-30-days", "lat": -23.964664495730823, "lon": 20.271722181384916, "alt_km": 353.9343189457986, "timestamp": "2025-12-04T03:47:53.336836+00:00", "meta": {"OBJECT_NAME": "STARLINK-35815", "OBJECT_ID": "2025-268W", "EPOCH": "2025-12-03T20:00:01.999008", "MEAN_MOTION": 15.73684989, "ECCENTRICITY": 0.0001044, "INCLINATION": 42.9988, "RA_OF_ASC_NODE": 173.7461, "ARG_OF_PERICENTER": 267.3451, "MEAN_ANOMALY": 267.0827, "EPHEMERIS_TYPE": 0, "CLASSIFICATION_TYPE": "U", "NORAD_CAT_ID": 66577, "ELEMENT_SET_NO": 999, "REV_AT_EPOCH": 323, "BSTAR": -0.01502, "MEAN_MOTION_DOT": -0.01891514, "MEAN_MOTION_DDOT": 0}, "tle": {"line1": "1 66577U 25268W   25337.83335647 -.01891514  00000+0 -15020-1 0  9992", "line2": "2 66577  42.9988 173.7461 0001044 267.3451 267.0827 15.73684989  3239"}}, "geometry": {"type": "Point", "coordinates": [20.271722181384916, -23.964664495730823]}}, {"type": "Feature", "properties": {"norad_id": 66578, "name": "STARLINK-35743", "group": "last-30-days", "lat": -25.10356231723463, "lon": 21.96129559774109, "alt_km": 354.0047770001074, "timestamp": "2025-12-04T03:47:53.336848+00:00", "meta": {"OBJECT_NAME": "STARLINK-35743", "OBJECT_ID": "2025-268X", "EPOCH": "2025-12-03T20:00:01.999008", "MEAN_MOTION": 15.73685591, "ECCENTRICITY": 0.000106, "INCLINATION": 42.9987, "RA_OF_ASC_NODE": 173.7412, "ARG_OF_PERICENTER": 268.0399, "MEAN_ANOMALY": 268.3067, "EPHEMERIS_TYPE": 0, "CLASSIFICATION_TYPE": "U", "NORAD_CAT_ID": 66578, "ELEMENT_SET_NO": 999, "REV_AT_EPOCH": 323, "BSTAR": -0.015044, "MEAN_MOTION_DOT": -0.01894124, "MEAN_MOTION_DDOT": 0}, "tle": {"line1": "1 66578U 25268X   25337.83335647 -.01894124  00000+0 -15044-1 0  9999", "line2": "2 66578  42.9987 173.7412 0001060 268.0399 268.3067 15.73685591  3232"}}, "geometry": {"type": "Point", "coordinates": [21.96129559774109, -25.10356231723463]}}, {"type": "Feature", "properties": {"norad_id": 66579, "name": "STARLINK-35868", "group": "last-30-days", "lat": -26.215584368821858, "lon": 23.670969149599628, "alt_km": 353.929413221128, "timestamp": "2025-12-04T03:47:53.336860+00:00", "meta": {"OBJECT_NAME": "STARLINK-35868", "OBJECT_ID": "2025-268Y", "EPOCH": "2025-12-03T20:00:01.999008", "MEAN_MOTION": 15.7369856, "ECCENTRICITY": 0.0001412, "INCLINATION": 42.9988, "RA_OF_ASC_NODE": 173.7365, "ARG_OF_PERICENTER": 270.7703, "MEAN_ANOMALY": 267.4717, "EPHEMERIS_TYPE": 0, "CLASSIFICATION_TYPE": "U", "NORAD_CAT_ID": 66579, "ELEMENT_SET_NO": 999, "REV_AT_EPOCH": 323, "BSTAR": -0.015062, "MEAN_MOTION_DOT": -0.01897371, "MEAN_MOTION_DDOT": 0}, "tle": {"line1": "1 66579U 25268Y   25337.83335647 -.01897371  00000+0 -15062-1 0  9997", "line2": "2 66579  42.9988 173.7365 0001412 270.7703 267.4717 15.73698560  3233"}}, "geometry": {"type": "Point", "coordinates": [23.670969149599628, -26.215584368821858]}}, {"type": "Feature", "properties": {"norad_id": 66580, "name": "STARLINK-35872", "group": "last-30-days", "lat": -27.31387984300419, "lon": 25.42531558849991, "alt_km": 353.9734555803907, "timestamp": "2025-12-04T03:47:53.336870+00:00", "meta": {"OBJECT_NAME": "STARLINK-35872", "OBJECT_ID": "2025-268Z", "EPOCH": "2025-12-03T20:00:01.999008", "MEAN_MOTION": 15.73700048, "ECCENTRICITY": 0.0001386, "INCLINATION": 42.9987, "RA_OF_ASC_NODE": 173.732, "ARG_OF_PERICENTER": 270.0039, "MEAN_ANOMALY": 270.1544, "EPHEMERIS_TYPE": 0, "CLASSIFICATION_TYPE": "U", "NORAD_CAT_ID": 66580, "ELEMENT_SET_NO": 999, "REV_AT_EPOCH": 323, "BSTAR": -0.015074, "MEAN_MOTION_DOT": -0.01898775, "MEAN_MOTION_DDOT": 0}, "tle": {"line1": "1 66580U 25268Z   25337.83335647 -.01898775  00000+0 -15074-1 0  9991", "line2": "2 66580  42.9987 173.7320 0001386 270.0039 270.1544 15.73700048  3234"}}, "geometry": {"type": "Point", "coordinates": [25.42531558849991, -27.31387984300419]}}, {"type": "Feature", "properties": {"norad_id": 66581, "name": "STARLINK-35744", "group": "last-30-days", "lat": -28.391890548577933, "lon": 27.217073499105, "alt_km": 354.0735921216983, "timestamp": "2025-12-04T03:47:53.336880+00:00", "meta": {"OBJECT_NAME": "STARLINK-35744", "OBJECT_ID": "2025-268AA", "EPOCH": "2025-12-03T20:00:01.999008", "MEAN_MOTION": 15.73679593, "ECCENTRICITY": 0.0001438, "INCLINATION": 42.9987, "RA_OF_ASC_NODE": 173.7265, "ARG_OF_PERICENTER": 272.4804, "MEAN_ANOMALY": 269.6194, "EPHEMERIS_TYPE": 0, "CLASSIFICATION_TYPE": "U", "NORAD_CAT_ID": 66581, "ELEMENT_SET_NO": 999, "REV_AT_EPOCH": 318, "BSTAR": -0.014988, "MEAN_MOTION_DOT": -0.01887981, "MEAN_MOTION_DDOT": 0}, "tle": {"line1": "1 66581U 25268AA  25337.83335647 -.01887981  00000+0 -14988-1 0  9992", "line2": "2 66581  42.9987 173.7265 0001438 272.4804 269.6194 15.73679593  3185"}}, "geometry": {"type": "Point", "coordinates": [27.217073499105, -28.391890548577933]}}, {"type": "Feature", "properties": {"norad_id": 66582, "name": "STARLINK-35746", "group": "last-30-days", "lat": -29.442717298886667, "lon": 29.04063616153065, "alt_km": 354.2374396892783, "timestamp": "2025-12-04T03:47:53.336890+00:00", "meta": {"OBJECT_NAME": "STARLINK-35746", "OBJECT_ID": "2025-268AB", "EPOCH": "2025-12-03T20:00:01.999008", "MEAN_MOTION": 15.73681781, "ECCENTRICITY": 0.00013, "INCLINATION": 42.9987, "RA_OF_ASC_NODE": 173.7219, "ARG_OF_PERICENTER": 276.5642, "MEAN_ANOMALY": 267.4487, "EPHEMERIS_TYPE": 0, "CLASSIFICATION_TYPE": "U", "NORAD_CAT_ID": 66582, "ELEMENT_SET_NO": 999, "REV_AT_EPOCH": 323, "BSTAR": -0.014986, "MEAN_MOTION_DOT": -0.01887785, "MEAN_MOTION_DDOT": 0}, "tle": {"line1": "1 66582U 25268AB  25337.83335647 -.01887785  00000+0 -14986-1 0  9993", "line2": "2 66582  42.9987 173.7219 0001300 276.5642 267.4487 15.73681781  3237"}}, "geometry": {"type": "Point", "coordinates": [29.04063616153065, -29.442717298886667]}}]}